CCSDS_OMM_VERS = 2.0
CREATION_DATE  = 
ORIGINATOR     = 

OBJECT_NAME    = SHIJIAN-30A
OBJECT_ID      = 2025-266A
CENTER_NAME    = EARTH
REF_FRAME      = TEME
TIME_SYSTEM    = UTC
MEAN_ELEMENT_THEORY = SGP/SGP4

EPOCH          = 2025-12-02T03:21:26.417376
MEAN_MOTION    = 15.15296003
ECCENTRICITY   = .0012742
INCLINATION    = 51.7993
RA_OF_ASC_NODE = 22.5132
ARG_OF_PERICENTER = 318.5143
MEAN_ANOMALY   = 41.4865

EPHEMERIS_TYPE = 0
CLASSIFICATION_TYPE = U
NORAD_CAT_ID   = 66545
ELEMENT_SET_NO = 999
REV_AT_EPOCH   = 197
BSTAR          = .77079E-3
MEAN_MOTION_DOT = .14442E-3
MEAN_MOTION_DDOT = 0

CCSDS_OMM_VERS = 2.0
CREATION_DATE  = 
ORIGINATOR     = 

OBJECT_NAME    = SHIJIAN-30B
OBJECT_ID      = 2025-266B
CENTER_NAME    = EARTH
REF_FRAME      = TEME
TIME_SYSTEM    = UTC
MEAN_ELEMENT_THEORY = SGP/SGP4

EPOCH          = 2025-12-02T03:22:56.286336
MEAN_MOTION    = 15.15351745
ECCENTRICITY   = .0010409
INCLINATION    = 51.7976
RA_OF_ASC_NODE = 22.5183
ARG_OF_PERICENTER = 321.4153
MEAN_ANOMALY   = 38.6079

EPHEMERIS_TYPE = 0
CLASSIFICATION_TYPE = U
NORAD_CAT_ID   = 66546
ELEMENT_SET_NO = 999
REV_AT_EPOCH   = 197
BSTAR          = .87524E-3
MEAN_MOTION_DOT = .16463E-3
MEAN_MOTION_DDOT = 0

CCSDS_OMM_VERS = 2.0
CREATION_DATE  = 
ORIGINATOR     = 

OBJECT_NAME    = SHIJIAN-30C
OBJECT_ID      = 2025-266C
CENTER_NAME    = EARTH
REF_FRAME      = TEME
TIME_SYSTEM    = UTC
MEAN_ELEMENT_THEORY = SGP/SGP4

EPOCH          = 2025-12-02T03:24:04.264128
MEAN_MOTION    = 15.15393977
ECCENTRICITY   = .0011316
INCLINATION    = 51.7987
RA_OF_ASC_NODE = 22.5238
ARG_OF_PERICENTER = 313.6645
MEAN_ANOMALY   = 46.3392

EPHEMERIS_TYPE = 0
CLASSIFICATION_TYPE = U
NORAD_CAT_ID   = 66547
ELEMENT_SET_NO = 999
REV_AT_EPOCH   = 197
BSTAR          = .75633E-3
MEAN_MOTION_DOT = .14199E-3
MEAN_MOTION_DDOT = 0

CCSDS_OMM_VERS = 2.0
CREATION_DATE  = 
ORIGINATOR     = 

OBJECT_NAME    = CZ-2C R/B
OBJECT_ID      = 2025-266D
CENTER_NAME    = EARTH
REF_FRAME      = TEME
TIME_SYSTEM    = UTC
MEAN_ELEMENT_THEORY = SGP/SGP4

EPOCH          = 2025-12-02T02:03:07.009056
MEAN_MOTION    = 15.29807959
ECCENTRICITY   = .0084884
INCLINATION    = 52.0549
RA_OF_ASC_NODE = 22.0262
ARG_OF_PERICENTER = 136.7997
MEAN_ANOMALY   = 223.9689

EPHEMERIS_TYPE = 0
CLASSIFICATION_TYPE = U
NORAD_CAT_ID   = 66548
ELEMENT_SET_NO = 999
REV_AT_EPOCH   = 198
BSTAR          = .4401E-3
MEAN_MOTION_DOT = .14009E-3
MEAN_MOTION_DDOT = 0

CCSDS_OMM_VERS = 2.0
CREATION_DATE  = 
ORIGINATOR     = 

OBJECT_NAME    = SHIJIAN-28
OBJECT_ID      = 2025-277A
CENTER_NAME    = EARTH
REF_FRAME      = TEME
TIME_SYSTEM    = UTC
MEAN_ELEMENT_THEORY = SGP/SGP4

EPOCH          = 2025-11-30T18:06:43.124256
MEAN_MOTION    = 2.28019775
ECCENTRICITY   = .7300519
INCLINATION    = 14.4344
RA_OF_ASC_NODE = 275.4056
ARG_OF_PERICENTER = 179.5026
MEAN_ANOMALY   = 182.3580

EPHEMERIS_TYPE = 0
CLASSIFICATION_TYPE = U
NORAD_CAT_ID   = 66549
ELEMENT_SET_NO = 999
REV_AT_EPOCH   = 4
BSTAR          = .62085E-3
MEAN_MOTION_DOT = .6315E-4
MEAN_MOTION_DDOT = 0

CCSDS_OMM_VERS = 2.0
CREATION_DATE  = 
ORIGINATOR     = 

OBJECT_NAME    = CZ-7A R/B
OBJECT_ID      = 2025-277B
CENTER_NAME    = EARTH
REF_FRAME      = TEME
TIME_SYSTEM    = UTC
MEAN_ELEMENT_THEORY = SGP/SGP4

EPOCH          = 2025-12-01T03:57:29.558880
MEAN_MOTION    = 2.40161271
ECCENTRICITY   = .7236288
INCLINATION    = 14.4278
RA_OF_ASC_NODE = 275.3780
ARG_OF_PERICENTER = 178.5774
MEAN_ANOMALY   = 186.2906

EPHEMERIS_TYPE = 0
CLASSIFICATION_TYPE = U
NORAD_CAT_ID   = 66550
ELEMENT_SET_NO = 999
REV_AT_EPOCH   = 5
BSTAR          = .44604E-4
MEAN_MOTION_DOT = .16399E-3
MEAN_MOTION_DDOT = -.71945E-7

CCSDS_OMM_VERS = 2.0
CREATION_DATE  = 
ORIGINATOR     = 

OBJECT_NAME    = GLOBAL-33
OBJECT_ID      = 2025-267A
CENTER_NAME    = EARTH
REF_FRAME      = TEME
TIME_SYSTEM    = UTC
MEAN_ELEMENT_THEORY = SGP/SGP4

EPOCH          = 2025-12-01T13:50:24.523008
MEAN_MOTION    = 15.31219725
ECCENTRICITY   = .00057288
INCLINATION    = 42.0185
RA_OF_ASC_NODE = 121.4212
ARG_OF_PERICENTER = 334.0325
MEAN_ANOMALY   = 26.0224

EPHEMERIS_TYPE = 0
CLASSIFICATION_TYPE = U
NORAD_CAT_ID   = 66554
ELEMENT_SET_NO = 999
REV_AT_EPOCH   = 169
BSTAR          = .42504888E-3
MEAN_MOTION_DOT = .12871E-3
MEAN_MOTION_DDOT = 0

CCSDS_OMM_VERS = 2.0
CREATION_DATE  = 
ORIGINATOR     = 

OBJECT_NAME    = ELECTRON KICK STAGE R/B
OBJECT_ID      = 2025-267B
CENTER_NAME    = EARTH
REF_FRAME      = TEME
TIME_SYSTEM    = UTC
MEAN_ELEMENT_THEORY = SGP/SGP4

EPOCH          = 2025-12-01T10:35:48.221376
MEAN_MOTION    = 15.32009577
ECCENTRICITY   = .0007494
INCLINATION    = 42.0166
RA_OF_ASC_NODE = 122.1405
ARG_OF_PERICENTER = 332.9044
MEAN_ANOMALY   = 27.1401

EPHEMERIS_TYPE = 0
CLASSIFICATION_TYPE = U
NORAD_CAT_ID   = 66555
ELEMENT_SET_NO = 999
REV_AT_EPOCH   = 167
BSTAR          = .92660656E-3
MEAN_MOTION_DOT = .29144E-3
MEAN_MOTION_DDOT = 0

CCSDS_OMM_VERS = 2.0
CREATION_DATE  = 
ORIGINATOR     = 

OBJECT_NAME    = STARLINK-35699
OBJECT_ID      = 2025-268A
CENTER_NAME    = EARTH
REF_FRAME      = TEME
TIME_SYSTEM    = UTC
MEAN_ELEMENT_THEORY = SGP/SGP4

EPOCH          = 2025-12-02T04:00:03.998880
MEAN_MOTION    = 15.78645453
ECCENTRICITY   = .0001793
INCLINATION    = 42.9968
RA_OF_ASC_NODE = 183.9664
ARG_OF_PERICENTER = 275.5304
MEAN_ANOMALY   = 112.6627

EPHEMERIS_TYPE = 0
CLASSIFICATION_TYPE = U
NORAD_CAT_ID   = 66557
ELEMENT_SET_NO = 999
REV_AT_EPOCH   = 297
BSTAR          = -.9546E-2
MEAN_MOTION_DOT = -.1514515E-1
MEAN_MOTION_DDOT = 0

CCSDS_OMM_VERS = 2.0
CREATION_DATE  = 
ORIGINATOR     = 

OBJECT_NAME    = STARLINK-35695
OBJECT_ID      = 2025-268B
CENTER_NAME    = EARTH
REF_FRAME      = TEME
TIME_SYSTEM    = UTC
MEAN_ELEMENT_THEORY = SGP/SGP4

EPOCH          = 2025-12-02T04:00:03.998880
MEAN_MOTION    = 15.78635598
ECCENTRICITY   = .0001824
INCLINATION    = 42.9967
RA_OF_ASC_NODE = 183.9616
ARG_OF_PERICENTER = 275.5643
MEAN_ANOMALY   = 114.6078

EPHEMERIS_TYPE = 0
CLASSIFICATION_TYPE = U
NORAD_CAT_ID   = 66558
ELEMENT_SET_NO = 999
REV_AT_EPOCH   = 297
BSTAR          = -.95723E-2
MEAN_MOTION_DOT = -.1517591E-1
MEAN_MOTION_DDOT = 0

CCSDS_OMM_VERS = 2.0
CREATION_DATE  = 
ORIGINATOR     = 

OBJECT_NAME    = STARLINK-35419
OBJECT_ID      = 2025-268C
CENTER_NAME    = EARTH
REF_FRAME      = TEME
TIME_SYSTEM    = UTC
MEAN_ELEMENT_THEORY = SGP/SGP4

EPOCH          = 2025-12-02T04:00:03.998880
MEAN_MOTION    = 15.78605643
ECCENTRICITY   = .0001917
INCLINATION    = 42.9969
RA_OF_ASC_NODE = 183.9563
ARG_OF_PERICENTER = 274.6409
MEAN_ANOMALY   = 117.6105

EPHEMERIS_TYPE = 0
CLASSIFICATION_TYPE = U
NORAD_CAT_ID   = 66559
ELEMENT_SET_NO = 999
REV_AT_EPOCH   = 297
BSTAR          = -.96551E-2
MEAN_MOTION_DOT = -.1527341E-1
MEAN_MOTION_DDOT = 0

CCSDS_OMM_VERS = 2.0
CREATION_DATE  = 
ORIGINATOR     = 

OBJECT_NAME    = STARLINK-35411
OBJECT_ID      = 2025-268D
CENTER_NAME    = EARTH
REF_FRAME      = TEME
TIME_SYSTEM    = UTC
MEAN_ELEMENT_THEORY = SGP/SGP4

EPOCH          = 2025-12-02T04:00:03.998880
MEAN_MOTION    = 15.78594445
ECCENTRICITY   = .0001841
INCLINATION    = 42.9971
RA_OF_ASC_NODE = 183.9512
ARG_OF_PERICENTER = 275.3133
MEAN_ANOMALY   = 118.9398

EPHEMERIS_TYPE = 0
CLASSIFICATION_TYPE = U
NORAD_CAT_ID   = 66560
ELEMENT_SET_NO = 999
REV_AT_EPOCH   = 297
BSTAR          = -.97161E-2
MEAN_MOTION_DOT = -.1535043E-1
MEAN_MOTION_DDOT = 0

