SHIJIAN-30A             
1 66545U 25266A   25336.13988909  .00014442  00000+0  77079-3 0  9990
2 66545  51.7993  22.5132 0012742 318.5143  41.4865 15.15296003  1975
SHIJIAN-30B             
1 66546U 25266B   25336.14092924  .00016463  00000+0  87524-3 0  9996
2 66546  51.7976  22.5183 0010409 321.4153  38.6079 15.15351745  1975
SHIJIAN-30C             
1 66547U 25266C   25336.14171602  .00014199  00000+0  75633-3 0  9990
2 66547  51.7987  22.5238 0011316 313.6645  46.3392 15.15393977  1973
CZ-2C R/B               
1 66548U 25266D   25336.08549779  .00014009  00000+0  44010-3 0  9993
2 66548  52.0549  22.0262 0084884 136.7997 223.9689 15.29807959  1986
SHIJIAN-28              
1 66549U 25277A   25334.75466579  .00006315  00000+0  62085-3 0  9997
2 66549  14.4344 275.4056 7300519 179.5026 182.3580  2.28019775    48
CZ-7A R/B               
1 66550U 25277B   25335.16492545  .00016399 -71945-7  44604-4 0  9993
2 66550  14.4278 275.3780 7236288 178.5774 186.2906  2.40161271    58
GLOBAL-33               
1 66554U 25267A   25335.57667272  .00012871  00000+0  42505-3 0  9995
2 66554  42.0185 121.4212 0005728 334.0325  26.0224 15.31219725  1691
ELECTRON KICK STAGE R/B 
1 66555U 25267B   25335.44153034  .00029144  00000+0  92661-3 0  9997
2 66555  42.0166 122.1405 0007494 332.9044  27.1401 15.32009577  1670
STARLINK-35699          
1 66557U 25268A   25336.16671295 -.01514515  00000+0 -95460-2 0  9997
2 66557  42.9968 183.9664 0001793 275.5304 112.6627 15.78645453  2973
STARLINK-35695          
1 66558U 25268B   25336.16671295 -.01517591  00000+0 -95723-2 0  9997
2 66558  42.9967 183.9616 0001824 275.5643 114.6078 15.78635598  2972
STARLINK-35419          
1 66559U 25268C   25336.16671295 -.01527341  00000+0 -96551-2 0  9992
2 66559  42.9969 183.9563 0001917 274.6409 117.6105 15.78605643  2971
STARLINK-35411          
1 66560U 25268D   25336.16671295 -.01535043  00000+0 -97161-2 0  9990
2 66560  42.9971 183.9512 0001841 275.3133 118.9398 15.78594445  2973
